IRIDIUM 152             
1 43479U 18047D   22230.31280222  .00000193  00000+0  61935-4 0  9996
2 43479  86.3983 312.9397 0002545  94.2013 265.9474 14.34220755221987
IRIDIUM 147             
1 43480U 18047E   22230.31915391  .00000234  00000+0  76652-4 0  9998
2 43480  86.3984 312.9180 0002256  88.6328 271.5126 14.34217482221985
IRIDIUM 110             
1 43481U 18047F   22230.74410069  .00000181  00000+0  57635-4 0  9999
2 43481  86.3985 312.7954 0002097 101.3995 258.7436 14.34219751222039
IRIDIUM 162             
1 43482U 18047G   22230.27434329  .00000245  00000+0  66925-4 0  9996
2 43482  86.4507 313.0010 0002324  96.2322 263.9143 14.43276470223357
IRIDIUM 160             
1 43569U 18061A   22230.41086752  .00000155  00000+0  48267-4 0  9996
2 43569  86.3940 281.2935 0002464  88.0590 272.0888 14.34220524212888
IRIDIUM 166             
1 43570U 18061B   22230.43623270  .00000155  00000+0  48188-4 0  9994
2 43570  86.3939 281.2527 0002303  98.1948 261.9509 14.34220969212910
IRIDIUM 158             
1 43571U 18061C   22230.40452303  .00000161  00000+0  50393-4 0  9997
2 43571  86.3939 281.2743 0002566  93.7087 266.4402 14.34218814212881
IRIDIUM 165             
1 43572U 18061D   22230.22059428  .00000170  00000+0  53548-4 0  9994
2 43572  86.3940 281.3715 0002525  95.8264 264.3220 14.34218714212872
IRIDIUM 155             
1 43573U 18061E   22230.39183596  .00000172  00000+0  54500-4 0  9998
2 43573  86.3937 281.2368 0001984  95.4765 264.6657 14.34218371212867
IRIDIUM 154             
1 43574U 18061F   22230.79141859  .00000148  00000+0  45796-4 0  9999
2 43574  86.3940 281.1361 0002449  86.9447 273.2029 14.34220690212971
IRIDIUM 163             
1 43575U 18061G   22230.42355092  .00000151  00000+0  46684-4 0  9997
2 43575  86.3938 281.2482 0002600  97.2876 262.8615 14.34220487212894
IRIDIUM 156             
1 43576U 18061H   22230.39819151  .00000165  00000+0  51886-4 0  9990
2 43576  86.3939 281.2643 0002299 100.8216 259.3239 14.34219842212872
IRIDIUM 164             
1 43577U 18061J   22230.37914716  .00000168  00000+0  52788-4 0  9997
2 43577  86.3940 281.2912 0002530  89.8754 270.2732 14.34221027212929
IRIDIUM 159             
1 43578U 18061K   22230.41721575  .00000155  00000+0  48322-4 0  9997
2 43578  86.3938 281.2415 0002455  89.0258 271.1219 14.34218658212894
IRIDIUM 180             
1 43922U 19002A   22230.69577371  .00000128  00000+0  38702-4 0  9990
2 43922  86.3975 217.9930 0002832  82.5915 277.5602 14.34218883188543
IRIDIUM 176             
1 43923U 19002B   22230.72338849  .00000273  00000+0  39338-4 0  9997
2 43923  86.6110 218.0174 0002536  88.6765 271.4743 14.72251830193491
IRIDIUM 168             
1 43924U 19002C   22230.82897037  .00000127  00000+0  38191-4 0  9992
2 43924  86.3977 217.9750 0002432  82.5820 277.5652 14.34218997188549
