[{"OBJECT_NAME":"IRIDIUM 152","OBJECT_ID":"2018-047D","EPOCH":"2022-08-18T07:30:26.111808","MEAN_MOTION":14.34220755,"ECCENTRICITY":0.0002545,"INCLINATION":86.3983,"RA_OF_ASC_NODE":312.9397,"ARG_OF_PERICENTER":94.2013,"MEAN_ANOMALY":265.9474,"EPHEMERIS_TYPE":0,"CLASSIFICATION_TYPE":"U","NORAD_CAT_ID":43479,"ELEMENT_SET_NO":999,"REV_AT_EPOCH":22198,"BSTAR":6.1935e-5,"MEAN_MOTION_DOT":1.93e-6,"MEAN_MOTION_DDOT":0},{"OBJECT_NAME":"IRIDIUM 147","OBJECT_ID":"2018-047E","EPOCH":"2022-08-18T07:39:34.897824","MEAN_MOTION":14.34217482,"ECCENTRICITY":0.0002256,"INCLINATION":86.3984,"RA_OF_ASC_NODE":312.918,"ARG_OF_PERICENTER":88.6328,"MEAN_ANOMALY":271.5126,"EPHEMERIS_TYPE":0,"CLASSIFICATION_TYPE":"U","NORAD_CAT_ID":43480,"ELEMENT_SET_NO":999,"REV_AT_EPOCH":22198,"BSTAR":7.6652e-5,"MEAN_MOTION_DOT":2.34e-6,"MEAN_MOTION_DDOT":0},{"OBJECT_NAME":"IRIDIUM 110","OBJECT_ID":"2018-047F","EPOCH":"2022-08-18T17:51:30.299616","MEAN_MOTION":14.34219751,"ECCENTRICITY":0.0002097,"INCLINATION":86.3985,"RA_OF_ASC_NODE":312.7954,"ARG_OF_PERICENTER":101.3995,"MEAN_ANOMALY":258.7436,"EPHEMERIS_TYPE":0,"CLASSIFICATION_TYPE":"U","NORAD_CAT_ID":43481,"ELEMENT_SET_NO":999,"REV_AT_EPOCH":22203,"BSTAR":5.7635e-5,"MEAN_MOTION_DOT":1.81e-6,"MEAN_MOTION_DDOT":0},{"OBJECT_NAME":"IRIDIUM 162","OBJECT_ID":"2018-047G","EPOCH":"2022-08-18T06:35:03.260256","MEAN_MOTION":14.4327647,"ECCENTRICITY":0.0002324,"INCLINATION":86.4507,"RA_OF_ASC_NODE":313.001,"ARG_OF_PERICENTER":96.2322,"MEAN_ANOMALY":263.9143,"EPHEMERIS_TYPE":0,"CLASSIFICATION_TYPE":"U","NORAD_CAT_ID":43482,"ELEMENT_SET_NO":999,"REV_AT_EPOCH":22335,"BSTAR":6.6925e-5,"MEAN_MOTION_DOT":2.45e-6,"MEAN_MOTION_DDOT":0},{"OBJECT_NAME":"IRIDIUM 160","OBJECT_ID":"2018-061A","EPOCH":"2022-08-18T09:51:38.953728","MEAN_MOTION":14.34220524,"ECCENTRICITY":0.0002464,"INCLINATION":86.394,"RA_OF_ASC_NODE":281.2935,"ARG_OF_PERICENTER":88.059,"MEAN_ANOMALY":272.0888,"EPHEMERIS_TYPE":0,"CLASSIFICATION_TYPE":"U","NORAD_CAT_ID":43569,"ELEMENT_SET_NO":999,"REV_AT_EPOCH":21288,"BSTAR":4.8267e-5,"MEAN_MOTION_DOT":1.55e-6,"MEAN_MOTION_DDOT":0},{"OBJECT_NAME":"IRIDIUM 166","OBJECT_ID":"2018-061B","EPOCH":"2022-08-18T10:28:10.505280","MEAN_MOTION":14.34220969,"ECCENTRICITY":0.0002303,"INCLINATION":86.3939,"RA_OF_ASC_NODE":281.2527,"ARG_OF_PERICENTER":98.1948,"MEAN_ANOMALY":261.9509,"EPHEMERIS_TYPE":0,"CLASSIFICATION_TYPE":"U","NORAD_CAT_ID":43570,"ELEMENT_SET_NO":999,"REV_AT_EPOCH":21291,"BSTAR":4.8188e-5,"MEAN_MOTION_DOT":1.55e-6,"MEAN_MOTION_DDOT":0},{"OBJECT_NAME":"IRIDIUM 158","OBJECT_ID":"2018-061C","EPOCH":"2022-08-18T09:42:30.789792","MEAN_MOTION":14.34218814,"ECCENTRICITY":0.0002566,"INCLINATION":86.3939,"RA_OF_ASC_NODE":281.2743,"ARG_OF_PERICENTER":93.7087,"MEAN_ANOMALY":266.4402,"EPHEMERIS_TYPE":0,"CLASSIFICATION_TYPE":"U","NORAD_CAT_ID":43571,"ELEMENT_SET_NO":999,"REV_AT_EPOCH":21288,"BSTAR":5.0393e-5,"MEAN_MOTION_DOT":1.61e-6,"MEAN_MOTION_DDOT":0},{"OBJECT_NAME":"IRIDIUM 165","OBJECT_ID":"2018-061D","EPOCH":"2022-08-18T05:17:39.345792","MEAN_MOTION":14.34218714,"ECCENTRICITY":0.0002525,"INCLINATION":86.394,"RA_OF_ASC_NODE":281.3715,"ARG_OF_PERICENTER":95.8264,"MEAN_ANOMALY":264.322,"EPHEMERIS_TYPE":0,"CLASSIFICATION_TYPE":"U","NORAD_CAT_ID":43572,"ELEMENT_SET_NO":999,"REV_AT_EPOCH":21287,"BSTAR":5.3548e-5,"MEAN_MOTION_DOT":1.7e-6,"MEAN_MOTION_DDOT":0},{"OBJECT_NAME":"IRIDIUM 155","OBJECT_ID":"2018-061E","EPOCH":"2022-08-18T09:24:14.626944","MEAN_MOTION":14.34218371,"ECCENTRICITY":0.0001984,"INCLINATION":86.3937,"RA_OF_ASC_NODE":281.2368,"ARG_OF_PERICENTER":95.4765,"MEAN_ANOMALY":264.6657,"EPHEMERIS_TYPE":0,"CLASSIFICATION_TYPE":"U","NORAD_CAT_ID":43573,"ELEMENT_SET_NO":999,"REV_AT_EPOCH":21286,"BSTAR":5.45e-5,"MEAN_MOTION_DOT":1.72e-6,"MEAN_MOTION_DDOT":0},{"OBJECT_NAME":"IRIDIUM 154","OBJECT_ID":"2018-061F","EPOCH":"2022-08-18T18:59:38.566176","MEAN_MOTION":14.3422069,"ECCENTRICITY":0.0002449,"INCLINATION":86.394,"RA_OF_ASC_NODE":281.1361,"ARG_OF_PERICENTER":86.9447,"MEAN_ANOMALY":273.2029,"EPHEMERIS_TYPE":0,"CLASSIFICATION_TYPE":"U","NORAD_CAT_ID":43574,"ELEMENT_SET_NO":999,"REV_AT_EPOCH":21297,"BSTAR":4.5796e-5,"MEAN_MOTION_DOT":1.48e-6,"MEAN_MOTION_DDOT":0},{"OBJECT_NAME":"IRIDIUM 163","OBJECT_ID":"2018-061G","EPOCH":"2022-08-18T10:09:54.799488","MEAN_MOTION":14.34220487,"ECCENTRICITY":0.00026,"INCLINATION":86.3938,"RA_OF_ASC_NODE":281.2482,"ARG_OF_PERICENTER":97.2876,"MEAN_ANOMALY":262.8615,"EPHEMERIS_TYPE":0,"CLASSIFICATION_TYPE":"U","NORAD_CAT_ID":43575,"ELEMENT_SET_NO":999,"REV_AT_EPOCH":21289,"BSTAR":4.6684e-5,"MEAN_MOTION_DOT":1.51e-6,"MEAN_MOTION_DDOT":0},{"OBJECT_NAME":"IRIDIUM 156","OBJECT_ID":"2018-061H","EPOCH":"2022-08-18T09:33:23.746464","MEAN_MOTION":14.34219842,"ECCENTRICITY":0.0002299,"INCLINATION":86.3939,"RA_OF_ASC_NODE":281.2643,"ARG_OF_PERICENTER":100.8216,"MEAN_ANOMALY":259.3239,"EPHEMERIS_TYPE":0,"CLASSIFICATION_TYPE":"U","NORAD_CAT_ID":43576,"ELEMENT_SET_NO":999,"REV_AT_EPOCH":21287,"BSTAR":5.1886e-5,"MEAN_MOTION_DOT":1.65e-6,"MEAN_MOTION_DDOT":0},{"OBJECT_NAME":"IRIDIUM 164","OBJECT_ID":"2018-061J","EPOCH":"2022-08-18T09:05:58.314624","MEAN_MOTION":14.34221027,"ECCENTRICITY":0.000253,"INCLINATION":86.394,"RA_OF_ASC_NODE":281.2912,"ARG_OF_PERICENTER":89.8754,"MEAN_ANOMALY":270.2732,"EPHEMERIS_TYPE":0,"CLASSIFICATION_TYPE":"U","NORAD_CAT_ID":43577,"ELEMENT_SET_NO":999,"REV_AT_EPOCH":21292,"BSTAR":5.2788e-5,"MEAN_MOTION_DOT":1.68e-6,"MEAN_MOTION_DDOT":0},{"OBJECT_NAME":"IRIDIUM 159","OBJECT_ID":"2018-061K","EPOCH":"2022-08-18T10:00:47.440800","MEAN_MOTION":14.34218658,"ECCENTRICITY":0.0002455,"INCLINATION":86.3938,"RA_OF_ASC_NODE":281.2415,"ARG_OF_PERICENTER":89.0258,"MEAN_ANOMALY":271.1219,"EPHEMERIS_TYPE":0,"CLASSIFICATION_TYPE":"U","NORAD_CAT_ID":43578,"ELEMENT_SET_NO":999,"REV_AT_EPOCH":21289,"BSTAR":4.8322e-5,"MEAN_MOTION_DOT":1.55e-6,"MEAN_MOTION_DDOT":0},{"OBJECT_NAME":"IRIDIUM 180","OBJECT_ID":"2019-002A","EPOCH":"2022-08-18T16:41:54.848544","MEAN_MOTION":14.34218883,"ECCENTRICITY":0.0002832,"INCLINATION":86.3975,"RA_OF_ASC_NODE":217.993,"ARG_OF_PERICENTER":82.5915,"MEAN_ANOMALY":277.5602,"EPHEMERIS_TYPE":0,"CLASSIFICATION_TYPE":"U","NORAD_CAT_ID":43922,"ELEMENT_SET_NO":999,"REV_AT_EPOCH":18854,"BSTAR":3.8702e-5,"MEAN_MOTION_DOT":1.28e-6,"MEAN_MOTION_DDOT":0},{"OBJECT_NAME":"IRIDIUM 176","OBJECT_ID":"2019-002B","EPOCH":"2022-08-18T17:21:40.765536","MEAN_MOTION":14.7225183,"ECCENTRICITY":0.0002536,"INCLINATION":86.611,"RA_OF_ASC_NODE":218.0174,"ARG_OF_PERICENTER":88.6765,"MEAN_ANOMALY":271.4743,"EPHEMERIS_TYPE":0,"CLASSIFICATION_TYPE":"U","NORAD_CAT_ID":43923,"ELEMENT_SET_NO":999,"REV_AT_EPOCH":19349,"BSTAR":3.9338e-5,"MEAN_MOTION_DOT":2.73e-6,"MEAN_MOTION_DDOT":0},{"OBJECT_NAME":"IRIDIUM 168","OBJECT_ID":"2019-002C","EPOCH":"2022-08-18T19:53:43.039968","MEAN_MOTION":14.34218997,"ECCENTRICITY":0.0002432,"INCLINATION":86.3977,"RA_OF_ASC_NODE":217.975,"ARG_OF_PERICENTER":82.582,"MEAN_ANOMALY":277.5652,"EPHEMERIS_TYPE":0,"CLASSIFICATION_TYPE":"U","NORAD_CAT_ID":43924,"ELEMENT_SET_NO":999,"REV_AT_EPOCH":18854,"BSTAR":3.8191e-5,"MEAN_MOTION_DOT":1.27e-6,"MEAN_MOTION_DDOT":0}]